[{"OBJECT_NAME":"GEESAT-3 07","OBJECT_ID":"2024-159G","EPOCH":"2026-03-09T22:01:38.218944","MEAN_MOTION":14.83815834,"ECCENTRICITY":0.00111185,"INCLINATION":49.9922,"RA_OF_ASC_NODE":183.3196,"ARG_OF_PERICENTER":11.1961,"MEAN_ANOMALY":348.9223,"EPHEMERIS_TYPE":0,"CLASSIFICATION_TYPE":"U","NORAD_CAT_ID":61017,"ELEMENT_SET_NO":999,"REV_AT_EPOCH":8140,"BSTAR":0.00040817534,"MEAN_MOTION_DOT":3.195e-5,"MEAN_MOTION_DDOT":0},{"OBJECT_NAME":"CZ-4B DEB","OBJECT_ID":"1999-057CN","EPOCH":"2026-03-09T23:04:54.412896","MEAN_MOTION":14.77921277,"ECCENTRICITY":0.00397465,"INCLINATION":98.2889,"RA_OF_ASC_NODE":52.8027,"ARG_OF_PERICENTER":263.3541,"MEAN_ANOMALY":96.3144,"EPHEMERIS_TYPE":0,"CLASSIFICATION_TYPE":"U","NORAD_CAT_ID":26200,"ELEMENT_SET_NO":999,"REV_AT_EPOCH":38186,"BSTAR":0.00079389546,"MEAN_MOTION_DOT":5.738e-5,"MEAN_MOTION_DDOT":0}]
